start=new Date('2022-09-27T00:00:00.000Z').valueOf();
sats=[{"APOAPSIS":"333.188","RA_OF_ASC_NODE":"219.8728","CLASSIFICATION_TYPE":"U","COUNTRY_CODE":"US","TLE_LINE1":"1 53847U 22114AF  22269.91667824 -.01224863  00000-0 -73382-2 0  9994","PERIAPSIS":"328.719","CENTER_NAME":"EARTH","OBJECT_TYPE":"PAYLOAD","LAUNCH_DATE":"2022-09-19","MEAN_ANOMALY":"333.2875","TLE_LINE2":"2 53847  53.2177 219.8728 0003331 302.9540 333.2875 15.79819582  1304","TIME_SYSTEM":"UTC","PERIOD":"91.150","MEAN_MOTION_DOT":"-0.01224863","SEMIMAJOR_AXIS":"6709.088","DECAY_DATE":null,"REV_AT_EPOCH":"130","EPOCH":"2022-09-26T22:00:00.999936","ARG_OF_PERICENTER":"302.9540","ELEMENT_SET_NO":"999","OBJECT_ID":"2022-114AF","GP_ID":"213602051","SITE":"AFETR","OBJECT_NAME":"STARLINK-4777","INCLINATION":"53.2177","RCS_SIZE":null,"REF_FRAME":"TEME","MEAN_ELEMENT_THEORY":"SGP4","MEAN_MOTION":"15.79819582","MEAN_MOTION_DDOT":"0.0000000000000","EPHEMERIS_TYPE":"0","FILE":"3584555","NORAD_CAT_ID":"53847","ECCENTRICITY":"0.00033310","BSTAR":"-0.00733820000000"},{"EPHEMERIS_TYPE":"0","MEAN_MOTION":"15.79921808","MEAN_MOTION_DDOT":"0.0000000000000","NORAD_CAT_ID":"53848","FILE":"3584555","BSTAR":"-0.00744390000000","ECCENTRICITY":"0.00025530","OBJECT_ID":"2022-114AG","ELEMENT_SET_NO":"999","ARG_OF_PERICENTER":"320.0386","SITE":"AFETR","GP_ID":"213602624","INCLINATION":"53.2172","RCS_SIZE":null,"OBJECT_NAME":"STARLINK-4780","MEAN_ELEMENT_THEORY":"SGP4","REF_FRAME":"TEME","OBJECT_TYPE":"PAYLOAD","MEAN_ANOMALY":"318.3762","LAUNCH_DATE":"2022-09-19","MEAN_MOTION_DOT":"-0.01245129","PERIOD":"91.144","TIME_SYSTEM":"UTC","TLE_LINE2":"2 53848  53.2172 219.8676 0002553 320.0386 318.3762 15.79921808  1300","REV_AT_EPOCH":"130","EPOCH":"2022-09-26T22:00:00.999936","DECAY_DATE":null,"SEMIMAJOR_AXIS":"6708.799","RA_OF_ASC_NODE":"219.8676","APOAPSIS":"332.377","COUNTRY_CODE":"US","CLASSIFICATION_TYPE":"U","CENTER_NAME":"EARTH","PERIAPSIS":"328.951","TLE_LINE1":"1 53848U 22114AG  22269.91667824 -.01245129  00000-0 -74439-2 0  9997"},{"COUNTRY_CODE":"US","CLASSIFICATION_TYPE":"U","CENTER_NAME":"EARTH","PERIAPSIS":"328.776","TLE_LINE1":"1 53849U 22114AH  22269.91667824 -.01254948  00000-0 -75237-2 0  9994","RA_OF_ASC_NODE":"219.8707","APOAPSIS":"332.804","MEAN_MOTION_DOT":"-0.01254948","PERIOD":"91.146","TIME_SYSTEM":"UTC","TLE_LINE2":"2 53849  53.2173 219.8707 0003002 308.7373 328.3621 15.79877375  1300","REV_AT_EPOCH":"130","EPOCH":"2022-09-26T22:00:00.999936","DECAY_DATE":null,"SEMIMAJOR_AXIS":"6708.925","OBJECT_TYPE":"PAYLOAD","MEAN_ANOMALY":"328.3621","LAUNCH_DATE":"2022-09-19","INCLINATION":"53.2173","RCS_SIZE":null,"OBJECT_NAME":"STARLINK-4770","MEAN_ELEMENT_THEORY":"SGP4","REF_FRAME":"TEME","OBJECT_ID":"2022-114AH","ELEMENT_SET_NO":"999","ARG_OF_PERICENTER":"308.7373","SITE":"AFETR","GP_ID":"213601800","BSTAR":"-0.00752370000000","ECCENTRICITY":"0.00030020","EPHEMERIS_TYPE":"0","MEAN_MOTION_DDOT":"0.0000000000000","MEAN_MOTION":"15.79877375","FILE":"3584555","NORAD_CAT_ID":"53849"},{"BSTAR":"-0.00729300000000","ECCENTRICITY":"0.00029860","NORAD_CAT_ID":"53850","FILE":"3584555","EPHEMERIS_TYPE":"0","MEAN_MOTION":"15.79959431","MEAN_MOTION_DDOT":"0.0000000000000","MEAN_ELEMENT_THEORY":"SGP4","REF_FRAME":"TEME","INCLINATION":"53.2177","RCS_SIZE":null,"OBJECT_NAME":"STARLINK-4767","SITE":"AFETR","GP_ID":"213602786","OBJECT_ID":"2022-114AJ","ELEMENT_SET_NO":"999","ARG_OF_PERICENTER":"315.3960","REV_AT_EPOCH":"130","EPOCH":"2022-09-26T22:00:00.999936","DECAY_DATE":null,"SEMIMAJOR_AXIS":"6708.692","MEAN_MOTION_DOT":"-0.01224929","PERIOD":"91.142","TIME_SYSTEM":"UTC","TLE_LINE2":"2 53850  53.2177 219.8662 0002986 315.3960 324.3259 15.79959431  1309","MEAN_ANOMALY":"324.3259","LAUNCH_DATE":"2022-09-19","OBJECT_TYPE":"PAYLOAD","CENTER_NAME":"EARTH","PERIAPSIS":"328.554","TLE_LINE1":"1 53850U 22114AJ  22269.91667824 -.01224929  00000-0 -72930-2 0  9999","COUNTRY_CODE":"US","CLASSIFICATION_TYPE":"U","RA_OF_ASC_NODE":"219.8662","APOAPSIS":"332.561"},{"LAUNCH_DATE":"2022-09-19","MEAN_ANOMALY":"347.7387","OBJECT_TYPE":"PAYLOAD","SEMIMAJOR_AXIS":"6708.894","DECAY_DATE":null,"REV_AT_EPOCH":"130","EPOCH":"2022-09-26T22:00:00.999936","TLE_LINE2":"2 53851  53.2177 219.8695 0003839 290.2520 347.7387 15.79888345  1303","TIME_SYSTEM":"UTC","PERIOD":"91.146","MEAN_MOTION_DOT":"-0.01224202","APOAPSIS":"333.334","RA_OF_ASC_NODE":"219.8695","TLE_LINE1":"1 53851U 22114AK  22269.91667824 -.01224202  00000-0 -73080-2 0  9991","PERIAPSIS":"328.183","CENTER_NAME":"EARTH","CLASSIFICATION_TYPE":"U","COUNTRY_CODE":"US","NORAD_CAT_ID":"53851","FILE":"3584555","MEAN_MOTION_DDOT":"0.0000000000000","MEAN_MOTION":"15.79888345","EPHEMERIS_TYPE":"0","ECCENTRICITY":"0.00038390","BSTAR":"-0.00730800000000","GP_ID":"213601636","SITE":"AFETR","ARG_OF_PERICENTER":"290.2520","ELEMENT_SET_NO":"999","OBJECT_ID":"2022-114AK","REF_FRAME":"TEME","MEAN_ELEMENT_THEORY":"SGP4","OBJECT_NAME":"STARLINK-4755","RCS_SIZE":null,"INCLINATION":"53.2177"},{"LAUNCH_DATE":"2022-09-19","MEAN_ANOMALY":"323.2945","OBJECT_TYPE":"PAYLOAD","SEMIMAJOR_AXIS":"6708.594","DECAY_DATE":null,"EPOCH":"2022-09-26T22:00:00.999936","REV_AT_EPOCH":"130","TLE_LINE2":"2 53852  53.2177 219.8645 0002794 317.2948 323.2945 15.79994263  1308","TIME_SYSTEM":"UTC","PERIOD":"91.140","MEAN_MOTION_DOT":"-0.01224939","APOAPSIS":"332.333","RA_OF_ASC_NODE":"219.8645","TLE_LINE1":"1 53852U 22114AL  22269.91667824 -.01224939  00000-0 -72822-2 0  9992","PERIAPSIS":"328.584","CENTER_NAME":"EARTH","CLASSIFICATION_TYPE":"U","COUNTRY_CODE":"US","NORAD_CAT_ID":"53852","FILE":"3584555","MEAN_MOTION":"15.79994263","MEAN_MOTION_DDOT":"0.0000000000000","EPHEMERIS_TYPE":"0","ECCENTRICITY":"0.00027940","BSTAR":"-0.00728220000000","GP_ID":"213602382","SITE":"AFETR","ARG_OF_PERICENTER":"317.2948","ELEMENT_SET_NO":"999","OBJECT_ID":"2022-114AL","REF_FRAME":"TEME","MEAN_ELEMENT_THEORY":"SGP4","OBJECT_NAME":"STARLINK-4797","RCS_SIZE":null,"INCLINATION":"53.2177"},{"SITE":"AFETR","GP_ID":"213602217","OBJECT_ID":"2022-114AM","ELEMENT_SET_NO":"999","ARG_OF_PERICENTER":"308.6953","MEAN_ELEMENT_THEORY":"SGP4","REF_FRAME":"TEME","RCS_SIZE":null,"INCLINATION":"53.2177","OBJECT_NAME":"STARLINK-4794","FILE":"3584555","NORAD_CAT_ID":"53853","EPHEMERIS_TYPE":"0","MEAN_MOTION_DDOT":"0.0000000000000","MEAN_MOTION":"15.79925542","BSTAR":"-0.00730380000000","ECCENTRICITY":"0.00029980","RA_OF_ASC_NODE":"219.8676","APOAPSIS":"332.665","CENTER_NAME":"EARTH","PERIAPSIS":"328.642","TLE_LINE1":"1 53853U 22114AM  22269.91667824 -.01224844  00000-0 -73038-2 0  9998","COUNTRY_CODE":"US","CLASSIFICATION_TYPE":"U","MEAN_ANOMALY":"330.1490","LAUNCH_DATE":"2022-09-19","OBJECT_TYPE":"PAYLOAD","EPOCH":"2022-09-26T22:00:00.999936","REV_AT_EPOCH":"130","DECAY_DATE":null,"SEMIMAJOR_AXIS":"6708.788","MEAN_MOTION_DOT":"-0.01224844","PERIOD":"91.144","TIME_SYSTEM":"UTC","TLE_LINE2":"2 53853  53.2177 219.8676 0002998 308.6953 330.1490 15.79925542  1305"},{"CENTER_NAME":"EARTH","TLE_LINE1":"1 53854U 22114AN  22269.91667824 -.01224400  00000-0 -72640-2 0  9995","PERIAPSIS":"328.047","CLASSIFICATION_TYPE":"U","COUNTRY_CODE":"US","APOAPSIS":"332.676","RA_OF_ASC_NODE":"219.8628","DECAY_DATE":null,"EPOCH":"2022-09-26T22:00:00.999936","REV_AT_EPOCH":"130","SEMIMAJOR_AXIS":"6708.497","PERIOD":"91.138","MEAN_MOTION_DOT":"-0.01224400","TLE_LINE2":"2 53854  53.2177 219.8628 0003450 298.4003 343.0541 15.80028609  1309","TIME_SYSTEM":"UTC","LAUNCH_DATE":"2022-09-19","MEAN_ANOMALY":"343.0541","OBJECT_TYPE":"PAYLOAD","MEAN_ELEMENT_THEORY":"SGP4","REF_FRAME":"TEME","INCLINATION":"53.2177","RCS_SIZE":null,"OBJECT_NAME":"STARLINK-4800","GP_ID":"213602544","SITE":"AFETR","OBJECT_ID":"2022-114AN","ARG_OF_PERICENTER":"298.4003","ELEMENT_SET_NO":"999","BSTAR":"-0.00726400000000","ECCENTRICITY":"0.00034500","FILE":"3584555","NORAD_CAT_ID":"53854","MEAN_MOTION_DDOT":"0.0000000000000","MEAN_MOTION":"15.80028609","EPHEMERIS_TYPE":"0"},{"MEAN_MOTION_DDOT":"0.0000000000000","MEAN_MOTION":"15.79941068","EPHEMERIS_TYPE":"0","NORAD_CAT_ID":"53855","FILE":"3584555","ECCENTRICITY":"0.00040130","BSTAR":"-0.00728850000000","ARG_OF_PERICENTER":"293.3928","ELEMENT_SET_NO":"999","OBJECT_ID":"2022-114AP","GP_ID":"213602052","SITE":"AFETR","OBJECT_NAME":"STARLINK-4703","RCS_SIZE":null,"INCLINATION":"53.2177","REF_FRAME":"TEME","MEAN_ELEMENT_THEORY":"SGP4","OBJECT_TYPE":"PAYLOAD","LAUNCH_DATE":"2022-09-19","MEAN_ANOMALY":"345.8968","TLE_LINE2":"2 53855  53.2177 219.8668 0004013 293.3928 345.8968 15.79941068  1304","TIME_SYSTEM":"UTC","PERIOD":"91.143","MEAN_MOTION_DOT":"-0.01224077","SEMIMAJOR_AXIS":"6708.744","DECAY_DATE":null,"REV_AT_EPOCH":"130","EPOCH":"2022-09-26T22:00:00.999936","APOAPSIS":"333.302","RA_OF_ASC_NODE":"219.8668","CLASSIFICATION_TYPE":"U","COUNTRY_CODE":"US","TLE_LINE1":"1 53855U 22114AP  22269.91667824 -.01224077  00000-0 -72885-2 0  9997","PERIAPSIS":"327.917","CENTER_NAME":"EARTH"},{"CLASSIFICATION_TYPE":"U","COUNTRY_CODE":"US","TLE_LINE1":"1 53856U 22114AQ  22269.91667824 -.01224453  00000-0 -72383-2 0  9999","PERIAPSIS":"328.215","CENTER_NAME":"EARTH","APOAPSIS":"332.021","RA_OF_ASC_NODE":"219.8583","TLE_LINE2":"2 53856  53.2177 219.8583 0002837 302.1638 341.4572 15.80114713  1304","TIME_SYSTEM":"UTC","PERIOD":"91.133","MEAN_MOTION_DOT":"-0.01224453","SEMIMAJOR_AXIS":"6708.253","DECAY_DATE":null,"REV_AT_EPOCH":"130","EPOCH":"2022-09-26T22:00:00.999936","OBJECT_TYPE":"PAYLOAD","LAUNCH_DATE":"2022-09-19","MEAN_ANOMALY":"341.4572","OBJECT_NAME":"STARLINK-4795","RCS_SIZE":null,"INCLINATION":"53.2177","REF_FRAME":"TEME","MEAN_ELEMENT_THEORY":"SGP4","ARG_OF_PERICENTER":"302.1638","ELEMENT_SET_NO":"999","OBJECT_ID":"2022-114AQ","GP_ID":"213602625","SITE":"AFETR","ECCENTRICITY":"0.00028370","BSTAR":"-0.00723830000000","MEAN_MOTION_DDOT":"0.0000000000000","MEAN_MOTION":"15.80114713","EPHEMERIS_TYPE":"0","FILE":"3584555","NORAD_CAT_ID":"53856"}];
